STARLINK-37091          
1 68191U 26050AA  26091.68206125  .00303680  00000+0  14804-2 0  9994
2 68191  53.1587 166.3930 0000762  64.7696 295.3405 15.80993175  4119
STARLINK-37098          
1 68192U 26050AB  26092.25028934  .00246466  00000+0  12131-2 0  9998
2 68192  53.1583 163.5367 0001769  72.0718 288.0497 15.80940874  4202
STARLINK-37090          
1 68193U 26050AC  26092.18556383  .00461542  00000+0  22041-2 0  9990
2 68193  53.1582 163.8426 0002011 103.3593 256.7654 15.81022869  4192
STARLINK-37093          
1 68194U 26050AD  26092.25254008  .00237536  00000+0  11703-2 0  9995
2 68194  53.1584 163.5512 0001692  77.6706 282.4507 15.80945103  4200
STARLINK-37058          
1 68195U 26050AE  26092.24953506  .00263723  00000+0  12944-2 0  9999
2 68195  53.1585 163.5313 0001276  77.2439 282.8726 15.80954551  2648
YAOGAN-50 02            
1 68196U 26051A   26092.26158810  .00000265  00000+0  71158-4 0  9992
2 68196 141.9866 320.9263 0000716 277.1143  82.9495 13.83260261  2473
CZ-6A R/B               
1 68197U 26051B   26092.16513262  .00001338  00000+0  18234-3 0  9995
2 68197 142.0311 330.1294 0187133 220.1270 138.5501 14.56379805  2580
2026-052A               
1 68198U 26052A   26092.31587013  .00009960  00000+0  61519-3 0  9992
2 68198  97.5363 168.2900 0013422 202.0992 157.9661 15.10005329  2596
2026-052C               
1 68200U 26052C   26092.31263354  .00006192  00000+0  38148-3 0  9991
2 68200  97.5361 168.2954 0012147 205.9359 154.1263 15.10270189  2583
2026-052D               
1 68201U 26052D   26092.31056657  .00009708  00000+0  59195-3 0  9999
2 68201  97.5356 168.2953 0011384 202.6418 157.4310 15.10502705  2591
2026-052E               
1 68202U 26052E   26092.31054741  .00009482  00000+0  57831-3 0  9996
2 68202  97.5362 168.2972 0011194 206.6235 153.4421 15.10501678  2597
