CCSDS_OMM_VERS = 2.0
CREATION_DATE  = 
ORIGINATOR     = 

OBJECT_NAME    = STARLINK-37091
OBJECT_ID      = 2026-050AA
CENTER_NAME    = EARTH
REF_FRAME      = TEME
TIME_SYSTEM    = UTC
MEAN_ELEMENT_THEORY = SGP/SGP4

EPOCH          = 2026-04-01T16:22:10.092000
MEAN_MOTION    = 15.80993175
ECCENTRICITY   = .00007622
INCLINATION    = 53.1587
RA_OF_ASC_NODE = 166.3930
ARG_OF_PERICENTER = 64.7696
MEAN_ANOMALY   = 295.3405

EPHEMERIS_TYPE = 0
CLASSIFICATION_TYPE = U
NORAD_CAT_ID   = 68191
ELEMENT_SET_NO = 999
REV_AT_EPOCH   = 411
BSTAR          = .14804107E-2
MEAN_MOTION_DOT = .30368E-2
MEAN_MOTION_DDOT = 0

CCSDS_OMM_VERS = 2.0
CREATION_DATE  = 
ORIGINATOR     = 

OBJECT_NAME    = STARLINK-37098
OBJECT_ID      = 2026-050AB
CENTER_NAME    = EARTH
REF_FRAME      = TEME
TIME_SYSTEM    = UTC
MEAN_ELEMENT_THEORY = SGP/SGP4

EPOCH          = 2026-04-02T06:00:24.998976
MEAN_MOTION    = 15.80940874
ECCENTRICITY   = .0001769
INCLINATION    = 53.1583
RA_OF_ASC_NODE = 163.5367
ARG_OF_PERICENTER = 72.0718
MEAN_ANOMALY   = 288.0497

EPHEMERIS_TYPE = 0
CLASSIFICATION_TYPE = U
NORAD_CAT_ID   = 68192
ELEMENT_SET_NO = 999
REV_AT_EPOCH   = 420
BSTAR          = .12131463E-2
MEAN_MOTION_DOT = .246466E-2
MEAN_MOTION_DDOT = 0

CCSDS_OMM_VERS = 2.0
CREATION_DATE  = 
ORIGINATOR     = 

OBJECT_NAME    = STARLINK-37090
OBJECT_ID      = 2026-050AC
CENTER_NAME    = EARTH
REF_FRAME      = TEME
TIME_SYSTEM    = UTC
MEAN_ELEMENT_THEORY = SGP/SGP4

EPOCH          = 2026-04-02T04:27:12.714912
MEAN_MOTION    = 15.81022869
ECCENTRICITY   = .00020112
INCLINATION    = 53.1582
RA_OF_ASC_NODE = 163.8426
ARG_OF_PERICENTER = 103.3593
MEAN_ANOMALY   = 256.7654

EPHEMERIS_TYPE = 0
CLASSIFICATION_TYPE = U
NORAD_CAT_ID   = 68193
ELEMENT_SET_NO = 999
REV_AT_EPOCH   = 419
BSTAR          = .22040584E-2
MEAN_MOTION_DOT = .461542E-2
MEAN_MOTION_DDOT = 0

CCSDS_OMM_VERS = 2.0
CREATION_DATE  = 
ORIGINATOR     = 

OBJECT_NAME    = STARLINK-37093
OBJECT_ID      = 2026-050AD
CENTER_NAME    = EARTH
REF_FRAME      = TEME
TIME_SYSTEM    = UTC
MEAN_ELEMENT_THEORY = SGP/SGP4

EPOCH          = 2026-04-02T06:03:39.462912
MEAN_MOTION    = 15.80945103
ECCENTRICITY   = .00016926
INCLINATION    = 53.1584
RA_OF_ASC_NODE = 163.5512
ARG_OF_PERICENTER = 77.6706
MEAN_ANOMALY   = 282.4507

EPHEMERIS_TYPE = 0
CLASSIFICATION_TYPE = U
NORAD_CAT_ID   = 68194
ELEMENT_SET_NO = 999
REV_AT_EPOCH   = 420
BSTAR          = .11703077E-2
MEAN_MOTION_DOT = .237536E-2
MEAN_MOTION_DDOT = 0

CCSDS_OMM_VERS = 2.0
CREATION_DATE  = 
ORIGINATOR     = 

OBJECT_NAME    = STARLINK-37058
OBJECT_ID      = 2026-050AE
CENTER_NAME    = EARTH
REF_FRAME      = TEME
TIME_SYSTEM    = UTC
MEAN_ELEMENT_THEORY = SGP/SGP4

EPOCH          = 2026-04-02T05:59:19.829184
MEAN_MOTION    = 15.80954551
ECCENTRICITY   = .0001276
INCLINATION    = 53.1585
RA_OF_ASC_NODE = 163.5313
ARG_OF_PERICENTER = 77.2439
MEAN_ANOMALY   = 282.8726

EPHEMERIS_TYPE = 0
CLASSIFICATION_TYPE = U
NORAD_CAT_ID   = 68195
ELEMENT_SET_NO = 999
REV_AT_EPOCH   = 264
BSTAR          = .1294426E-2
MEAN_MOTION_DOT = .263723E-2
MEAN_MOTION_DDOT = 0

CCSDS_OMM_VERS = 2.0
CREATION_DATE  = 
ORIGINATOR     = 

OBJECT_NAME    = YAOGAN-50 02
OBJECT_ID      = 2026-051A
CENTER_NAME    = EARTH
REF_FRAME      = TEME
TIME_SYSTEM    = UTC
MEAN_ELEMENT_THEORY = SGP/SGP4

EPOCH          = 2026-04-02T06:16:41.211840
MEAN_MOTION    = 13.83260261
ECCENTRICITY   = .00007166
INCLINATION    = 141.9866
RA_OF_ASC_NODE = 320.9263
ARG_OF_PERICENTER = 277.1143
MEAN_ANOMALY   = 82.9495

EPHEMERIS_TYPE = 0
CLASSIFICATION_TYPE = U
NORAD_CAT_ID   = 68196
ELEMENT_SET_NO = 999
REV_AT_EPOCH   = 247
BSTAR          = .71158444E-4
MEAN_MOTION_DOT = .265E-5
MEAN_MOTION_DDOT = 0

CCSDS_OMM_VERS = 2.0
CREATION_DATE  = 
ORIGINATOR     = 

OBJECT_NAME    = CZ-6A R/B
OBJECT_ID      = 2026-051B
CENTER_NAME    = EARTH
REF_FRAME      = TEME
TIME_SYSTEM    = UTC
MEAN_ELEMENT_THEORY = SGP/SGP4

EPOCH          = 2026-04-02T03:57:47.458368
MEAN_MOTION    = 14.56379805
ECCENTRICITY   = .01871331
INCLINATION    = 142.0311
RA_OF_ASC_NODE = 330.1294
ARG_OF_PERICENTER = 220.1270
MEAN_ANOMALY   = 138.5501

EPHEMERIS_TYPE = 0
CLASSIFICATION_TYPE = U
NORAD_CAT_ID   = 68197
ELEMENT_SET_NO = 999
REV_AT_EPOCH   = 258
BSTAR          = .18233581E-3
MEAN_MOTION_DOT = .1338E-4
MEAN_MOTION_DDOT = 0

CCSDS_OMM_VERS = 2.0
CREATION_DATE  = 
ORIGINATOR     = 

OBJECT_NAME    = 2026-052A
OBJECT_ID      = 2026-052A
CENTER_NAME    = EARTH
REF_FRAME      = TEME
TIME_SYSTEM    = UTC
MEAN_ELEMENT_THEORY = SGP/SGP4

EPOCH          = 2026-04-02T07:34:51.179232
MEAN_MOTION    = 15.10005329
ECCENTRICITY   = .00134225
INCLINATION    = 97.5363
RA_OF_ASC_NODE = 168.2900
ARG_OF_PERICENTER = 202.0992
MEAN_ANOMALY   = 157.9661

EPHEMERIS_TYPE = 0
CLASSIFICATION_TYPE = U
NORAD_CAT_ID   = 68198
ELEMENT_SET_NO = 999
REV_AT_EPOCH   = 259
BSTAR          = .61519017E-3
MEAN_MOTION_DOT = .996E-4
MEAN_MOTION_DDOT = 0

CCSDS_OMM_VERS = 2.0
CREATION_DATE  = 
ORIGINATOR     = 

OBJECT_NAME    = 2026-052C
OBJECT_ID      = 2026-052C
CENTER_NAME    = EARTH
REF_FRAME      = TEME
TIME_SYSTEM    = UTC
MEAN_ELEMENT_THEORY = SGP/SGP4

EPOCH          = 2026-04-02T07:30:11.537856
MEAN_MOTION    = 15.10270189
ECCENTRICITY   = .0012147
INCLINATION    = 97.5361
RA_OF_ASC_NODE = 168.2954
ARG_OF_PERICENTER = 205.9359
MEAN_ANOMALY   = 154.1263

EPHEMERIS_TYPE = 0
CLASSIFICATION_TYPE = U
NORAD_CAT_ID   = 68200
ELEMENT_SET_NO = 999
REV_AT_EPOCH   = 258
BSTAR          = .38148156E-3
MEAN_MOTION_DOT = .6192E-4
MEAN_MOTION_DDOT = 0

CCSDS_OMM_VERS = 2.0
CREATION_DATE  = 
ORIGINATOR     = 

OBJECT_NAME    = 2026-052D
OBJECT_ID      = 2026-052D
CENTER_NAME    = EARTH
REF_FRAME      = TEME
TIME_SYSTEM    = UTC
MEAN_ELEMENT_THEORY = SGP/SGP4

EPOCH          = 2026-04-02T07:27:12.951648
MEAN_MOTION    = 15.10502705
ECCENTRICITY   = .00113842
INCLINATION    = 97.5356
RA_OF_ASC_NODE = 168.2953
ARG_OF_PERICENTER = 202.6418
MEAN_ANOMALY   = 157.4310

EPHEMERIS_TYPE = 0
CLASSIFICATION_TYPE = U
NORAD_CAT_ID   = 68201
ELEMENT_SET_NO = 999
REV_AT_EPOCH   = 259
BSTAR          = .59195479E-3
MEAN_MOTION_DOT = .9708E-4
MEAN_MOTION_DDOT = 0

CCSDS_OMM_VERS = 2.0
CREATION_DATE  = 
ORIGINATOR     = 

OBJECT_NAME    = 2026-052E
OBJECT_ID      = 2026-052E
CENTER_NAME    = EARTH
REF_FRAME      = TEME
TIME_SYSTEM    = UTC
MEAN_ELEMENT_THEORY = SGP/SGP4

EPOCH          = 2026-04-02T07:27:11.296224
MEAN_MOTION    = 15.10501678
ECCENTRICITY   = .00111947
INCLINATION    = 97.5362
RA_OF_ASC_NODE = 168.2972
ARG_OF_PERICENTER = 206.6235
MEAN_ANOMALY   = 153.4421

EPHEMERIS_TYPE = 0
CLASSIFICATION_TYPE = U
NORAD_CAT_ID   = 68202
ELEMENT_SET_NO = 999
REV_AT_EPOCH   = 259
BSTAR          = .57831214E-3
MEAN_MOTION_DOT = .9482E-4
MEAN_MOTION_DDOT = 0

